IRIDIUM 112             
1 41925U 17003J   25300.66484086  .00000329  00000+0  11034-3 0  9999
2 41925  86.4026 185.4443 0002243  85.6047 274.5405 14.34218713459941
IRIDIUM 111             
1 41926U 17003K   25300.44285353  .00000375  00000+0  12687-3 0  9998
2 41926  86.4030 185.6023 0002153  81.6527 278.4913 14.34214939459899
IRIDIUM 113             
1 42803U 17039A   25300.84142691  .00000209  00000+0  67554-4 0  9993
2 42803  86.3974  59.2751 0002194  92.1924 267.9523 14.34217519437889
IRIDIUM 123             
1 42804U 17039B   25300.39452272  .00000245  00000+0  80505-4 0  9994
2 42804  86.3929  90.9576 0001897  81.8937 278.2474 14.34218537436582
IRIDIUM 120             
1 42805U 17039C   25300.83508249  .00000070  00000+0  17842-4 0  9990
2 42805  86.3962  59.0902 0001762  98.8262 261.3133 14.34217977437874
IRIDIUM 115             
1 42806U 17039D   25300.86026414  .00000562  00000+0  16104-3 0  9998
2 42806  86.4497  59.1763 0001669  80.5071 279.6318 14.43279384440755
IRIDIUM 118             
1 42807U 17039E   25300.84484830  .00000133  00000+0  40422-4 0  9992
2 42807  86.3926  90.7681 0002268  91.0867 269.0588 14.34218361436641
IRIDIUM 117             
1 42808U 17039F   25300.86387505  .00000078  00000+0  20937-4 0  9993
2 42808  86.3926  90.7201 0002061  85.2661 274.8770 14.34218125436676
